satname,norad_id,inclination_deg,eccentricity,mean_motion_rev_per_day,perigee_km,apogee_km,l1,l2
STARLINK-1280,45388,53.0493,0.0010344,15.46150157,420.9603897853931,435.0409273734613,1 45388U 20019AE  25345.56969246  .00027943  00000+0  56643-3 0  9997,2 45388  53.0493 188.9446 0010344 130.2155 229.9758 15.46150157316628
STARLINK-1283,45389,53.0464,0.0011271,15.35948261,450.40021945581884,465.8104769571455,1 45389U 20019AF  25345.53490247  .00119080  00000+0  33064-2 0  9990,2 45389  53.0464 171.1039 0011271 138.9199 221.2654 15.35948261316889
STARLINK-1284,45390,53.0528,0.0001413,15.06397227,546.2415038448044,548.1986097490544,1 45390U 20019AG  25344.98070112  .00000403  00000+0  45939-4 0  9999,2 45390  53.0528 184.8515 0001413  91.5545 268.5606 15.06397227316630
STARLINK-1297,45395,53.0508,0.0001499,15.06401573,546.1686278978614,548.244845950192,1 45395U 20019AM  25345.54833743  .00000331  00000+0  41132-4 0  9995,2 45395  53.0508 182.3004 0001499  87.0581 273.0579 15.06401573315902
STARLINK-1307,45397,53.0492,0.00023,15.06391659,545.6442859718472,548.829958067975,1 45397U 20019AP  25345.54097785 -.00000114  00000+0  11278-4 0  9993,2 45397  53.0492 182.3344 0002300  84.1390 275.9861 15.06391659316540
STARLINK-1255,45399,53.0466,0.0007984,15.35820346,453.02656742493036,463.9432853169601,1 45399U 20019AR  25345.21821184  .00124074  00000+0  34597-2 0  9995,2 45399  53.0466 163.6618 0007984 144.6918 215.4614 15.35820346316761
STARLINK-1260,45404,53.0541,0.0001463,15.06397559,546.2058596732677,548.2322188503558,1 45404U 20019AW  25344.81207116  .00001014  00000+0  86978-4 0  9990,2 45404  53.0541 175.6028 0001463  90.2841 269.8316 15.06397559316469
STARLINK-1263,45405,53.0518,0.0001589,15.06394278,546.1286544271588,548.3295357721818,1 45405U 20019AX  25345.52713084 -.00006338  00000+0 -40700-3 0  9994,2 45405  53.0518 172.3970 0001589  88.6253 271.4918 15.06394278316575
STARLINK-1265,45406,53.053,0.0001477,15.06407605,546.1653792672596,548.2111203460536,1 45406U 20019AY  25345.26911766 -.00000626  00000+0 -23119-4 0  9993,2 45406  53.0530 173.5559 0001477  82.4572 277.6585 15.06407605316531
STARLINK-1278,45408,53.0526,0.0009697,15.3909082,442.1764796209727,455.41663456159495,1 45408U 20019BA  25345.27915412  .00124308  00000+0  31166-2 0  9999,2 45408  53.0526 192.7890 0009697 124.5973 235.5946 15.39090820316272
STARLINK-1296,45412,53.0445,0.0002783,15.06424009,545.2106707630301,549.065278813996,1 45412U 20019BE  25345.53818285  .00000318  00000+0  40240-4 0  9992,2 45412  53.0445 172.3433 0002783  88.1022 272.0285 15.06424009316572
STARLINK-1298,45413,53.0442,0.000653,15.60775484,380.9992019277979,389.8324018870899,1 45413U 20019BF  25345.66668981  .00110540  00000+0  12908-2 0  9990,2 45413  53.0442 133.2905 0006530  90.2834 222.2993 15.60775484  5933
STARLINK-1309,45414,53.053,0.0001527,15.06394262,546.1716407274662,548.2866475478859,1 45414U 20019BG  25345.48659936 -.00000026  00000+0  17147-4 0  9991,2 45414  53.0530 172.5786 0001527  93.4225 266.6939 15.06394262316551
STARLINK-1316,45415,53.0537,0.0001392,15.06401502,546.2429466499598,548.1709624069008,1 45415U 20019BH  25345.51239705  .00000823  00000+0  74125-4 0  9997,2 45415  53.0537 172.4611 0001392  90.5070 269.6078 15.06401502316598
STARLINK-1318,45416,53.0456,0.0001491,15.67647959,364.6284933493125,366.6394858584126,1 45416U 20019BJ  25345.66668981  .00169533  00000+0  14970-2 0  9990,2 45416  53.0456 122.6843 0001491 177.0119 192.9096 15.67647959  5956
STARLINK-1286,45417,53.0478,0.0005785,15.40899638,439.50659354873187,447.39917304370556,1 45417U 20019BK  25345.58930757  .00073051  00000+0  17428-2 0  9995,2 45417  53.0478 191.2748 0005785 128.7665 231.3857 15.40899638316598
STARLINK-1308,45419,53.0517,0.0001383,15.06414304,546.2099489427474,548.1254882279072,1 45419U 20019BM  25345.61285127  .00004637  00000+0  32989-3 0  9999,2 45419  53.0517 202.0088 0001383  83.0995 277.0151 15.06414304316196
STARLINK-1329,45531,53.054,0.0001222,15.20641864,503.06233758254257,504.74430823746206,1 45531U 20025A   25345.66668981  .01928827  00000+0  78494-1 0  9995,2 45531  53.0540 141.3888 0001222  68.4090 232.4350 15.20641864  5735
STARLINK-1338,45532,53.0514,0.0001546,15.06430202,546.0483501278904,548.1896392814524,1 45532U 20025B   25345.45987392  .00008958  00000+0  61900-3 0  9992,2 45532  53.0514 142.6963 0001546  97.9313 262.1852 15.06430202311798
STARLINK-1350,45535,53.0744,0.0001591,15.33625824,463.9164784095319,466.0939662646806,1 45535U 20025E   25345.55907922  .00020146  00000+0  62071-3 0  9990,2 45535  53.0744  86.2500 0001591  97.0680 263.0503 15.33625824312626
STARLINK-1362,45538,53.0548,7.45e-05,15.06385492,546.7400814453795,547.7719650058407,1 45538U 20025H   25345.42573692 -.00001399  00000+0 -75106-4 0  9997,2 45538  53.0548 142.5688 0000745  91.2538 268.8537 15.06385492311793
STARLINK-1368,45540,53.0541,0.0001366,15.06399726,546.266394981214,548.1584004366687,1 45540U 20025K   25345.43038467  .00000863  00000+0  76794-4 0  9994,2 45540  53.0541 142.8294 0001366  87.8559 272.2587 15.06399726311787
STARLINK-1371,45542,53.054,0.0001468,15.06412847,546.1555486251982,548.1888194016246,1 45542U 20025M   25345.46723280  .00001645  00000+0  12929-3 0  9991,2 45542  53.0540 142.6609 0001468  90.3203 269.7955 15.06412847311795
STARLINK-1372,45543,53.0532,0.000147,15.06408022,546.1689491489142,548.2049943966149,1 45543U 20025N   25345.43776903  .00002550  00000+0  19000-3 0  9992,2 45543  53.0532 142.7970 0001470  98.5525 261.5630 15.06408022310888
STARLINK-1373,45544,53.0471,0.0002513,15.06405625,545.4539824168132,548.9346539373291,1 45544U 20025P   25345.45618002  .00000873  00000+0  77512-4 0  9999,2 45544  53.0471 142.7079 0002513  95.2184 264.9092 15.06405625311791
STARLINK-1294,45551,53.0461,0.0001417,15.6794015,363.84067345471885,365.7516207086019,1 45551U 20025W   25345.59451443  .00116652  00000+0  10260-2 0  9994,2 45551  53.0461  58.4382 0001417 139.0781 221.0342 15.67940150312999
STARLINK-1325,45554,53.0508,0.0009334,15.77761902,330.51562892836955,343.05104221081183,1 45554U 20025Z   25345.66668981  .00250395  00000+0  14193-2 0  9994,2 45554  53.0508  49.3557 0009334  12.9338 328.3959 15.77761902  5812
STARLINK-1327,45555,53.0544,0.0001215,15.06389679,546.4017568042427,548.0846241905347,1 45555U 20025AA  25345.36219917  .00001488  00000+0  11880-3 0  9991,2 45555  53.0544 123.1353 0001215  91.8495 268.2634 15.06389679312056
STARLINK-1356,45564,53.056,0.0001723,15.06411824,545.9820880056623,548.3685506309002,1 45564U 20025AK  25345.10048274  .00002688  00000+0  19924-3 0  9999,2 45564  53.0560 124.3084 0001723  94.2847 265.8339 15.06411824312019
STARLINK-1357,45565,53.0595,0.0005137,15.39058263,445.38578878914905,452.3998792406155,1 45565U 20025AL  25345.58902211  .00102045  00000+0  25731-2 0  9992,2 45565  53.0595  98.7295 0005137 149.9187 210.2112 15.39058263312422
STARLINK-1361,45567,53.0532,0.0001519,15.06404814,546.1448455561203,548.2487619657031,1 45567U 20025AN  25345.64969527  .00000368  00000+0  43572-4 0  9994,2 45567  53.0532 121.8425 0001519  89.8589 270.2574 15.06404814312100
STARLINK-1363,45568,53.0506,0.0005512,15.49126175,415.5343053202796,423.0277789699403,1 45568U 20025AP  25345.62230179  .00107346  00000+0  19230-2 0  9993,2 45568  53.0506 108.3626 0005512 233.2350 126.8152 15.49126175312288
STARLINK-1366,45569,53.051,0.0004881,15.46222469,424.4664834969735,431.1104279268402,1 45569U 20025AQ  25345.63983235  .00098322  00000+0  19514-2 0  9991,2 45569  53.0510 108.3555 0004881 244.7716 115.2785 15.46222469312280
STARLINK-1376,45570,53.056,0.0001375,15.06405964,546.2410462841672,548.1455121109457,1 45570U 20025AR  25345.64600321  .00001425  00000+0  11450-3 0  9996,2 45570  53.0560 121.8636 0001375  87.2451 272.8695 15.06405964312096
STARLINK-1320,45572,53.0545,0.0004259,15.48934195,416.9474338953278,422.7379529982063,1 45572U 20025AT  25345.66668981  .00126136  00000+0  22685-2 0  9994,2 45572  53.0545  53.7487 0004259 113.1835 321.4486 15.48934195  5858
STARLINK-1321,45573,53.053,0.000127,15.06415649,546.2840832466018,548.0431095980921,1 45573U 20025AU  25345.63217606  .00004414  00000+0  31490-3 0  9995,2 45573  53.0530 111.9244 0001270  88.6399 271.4736 15.06415649311935
STARLINK-1328,45576,53.0446,0.0002331,15.86603751,310.2533408862446,313.3721954681687,1 45576U 20025AX  25345.66668981  .00427301  00000+0  15733-2 0  9992,2 45576  53.0446  67.3579 0002331 201.3935 186.8539 15.86603751  5984
STARLINK-1331,45578,53.051,0.0001411,15.06386346,546.2762332115726,548.2305783840893,1 45578U 20025AZ  25345.07930373 -.00000940  00000+0 -44248-4 0  9999,2 45578  53.0510 114.4057 0001411  82.8494 277.2655 15.06386346312168
STARLINK-1333,45580,53.0511,0.0001362,15.064041,546.2557612951678,548.1422228194042,1 45580U 20025BB  25345.41748609  .00001153  00000+0  96301-4 0  9991,2 45580  53.0511 122.8855 0001362  96.4942 263.6203 15.06404100312061
STARLINK-1335,45581,53.0535,0.0001727,15.0641328,545.97485628306,548.3668576168502,1 45581U 20025BC  25345.62113371  .00001561  00000+0  12365-3 0  9997,2 45581  53.0535 111.9750 0001727  86.0884 274.0302 15.06413280312230
STARLINK-1337,45582,53.0514,0.0001456,15.06414399,546.1591031039989,548.175751753266,1 45582U 20025BD  25345.64322896  .00001013  00000+0  86889-4 0  9999,2 45582  53.0514 111.8743 0001456  90.9690 269.1466 15.06414399312235
STARLINK-1347,45586,53.0515,0.000417,15.379092,449.4447067944011,455.1412854111495,1 45586U 20025BH  25345.66668981  .00111394  00000+0  29117-2 0  9996,2 45586  53.0515  89.0894 0004170 150.4270 153.6040 15.37909200  5918
STARLINK-1360,45588,53.0394,0.0004569,15.89298802,301.19446617756785,307.30082926865725,1 45588U 20025BK  25345.66668981  .00286592  00000+0  93883-3 0  9993,2 45588  53.0394 353.6959 0004569  41.6838 354.5246 15.89298802  5949
